[{"OBJECT_NAME":"LYNK TOWER 6","OBJECT_ID":"2024-043AB","EPOCH":"2026-03-09T21:28:38.303328","MEAN_MOTION":15.29548678,"ECCENTRICITY":0.00097492,"INCLINATION":97.5426,"RA_OF_ASC_NODE":204.1954,"ARG_OF_PERICENTER":232.0253,"MEAN_ANOMALY":128.0107,"EPHEMERIS_TYPE":0,"CLASSIFICATION_TYPE":"U","NORAD_CAT_ID":59123,"ELEMENT_SET_NO":999,"REV_AT_EPOCH":11184,"BSTAR":0.00040142146,"MEAN_MOTION_DOT":0.0001144,"MEAN_MOTION_DDOT":0},{"OBJECT_NAME":"STARLINK-34296","OBJECT_ID":"2025-117P","EPOCH":"2026-03-09T22:12:49.622112","MEAN_MOTION":15.30217621,"ECCENTRICITY":0.00014866,"INCLINATION":53.1609,"RA_OF_ASC_NODE":38.3749,"ARG_OF_PERICENTER":82.7885,"MEAN_ANOMALY":277.3285,"EPHEMERIS_TYPE":0,"CLASSIFICATION_TYPE":"U","NORAD_CAT_ID":64216,"ELEMENT_SET_NO":999,"REV_AT_EPOCH":4459,"BSTAR":0.0012917003,"MEAN_MOTION_DOT":0.00038115,"MEAN_MOTION_DDOT":0}]
